[{"OBJECT_NAME":"STARLINK-6266","OBJECT_ID":"2023-065AR","EPOCH":"2026-03-09T10:04:09.762816","MEAN_MOTION":15.02537405,"ECCENTRICITY":0.00013015,"INCLINATION":43.0026,"RA_OF_ASC_NODE":224.8651,"ARG_OF_PERICENTER":262.1452,"MEAN_ANOMALY":97.9242,"EPHEMERIS_TYPE":0,"CLASSIFICATION_TYPE":"U","NORAD_CAT_ID":56542,"ELEMENT_SET_NO":999,"REV_AT_EPOCH":15643,"BSTAR":-3.174188e-6,"MEAN_MOTION_DOT":-2.46e-6,"MEAN_MOTION_DDOT":0},{"OBJECT_NAME":"DELTA 1 DEB [YO]","OBJECT_ID":"1962-025C","EPOCH":"2026-03-09T06:59:27.829248","MEAN_MOTION":14.61649282,"ECCENTRICITY":0.01914532,"INCLINATION":58.2466,"RA_OF_ASC_NODE":31.0391,"ARG_OF_PERICENTER":170.2979,"MEAN_ANOMALY":190.1836,"EPHEMERIS_TYPE":0,"CLASSIFICATION_TYPE":"U","NORAD_CAT_ID":312,"ELEMENT_SET_NO":999,"REV_AT_EPOCH":34431,"BSTAR":0.00017996806,"MEAN_MOTION_DOT":9.52e-6,"MEAN_MOTION_DDOT":0}]
